*******************************************************************************
Ephemeris / WWW_USER Mon Jul 15 19:15:22 2024 Pasadena, USA      / Horizons    
*******************************************************************************
Target body name: (2018 WV1)                      {source: JPL#17}
Center body name: Earth (399)                     {source: DE441}
Center-site name: Gemini South Obs., Cerro Pachon
*******************************************************************************
Start time      : A.D. 2018-Dec-14 23:49:00.0000 UT      
Stop  time      : A.D. 2018-Dec-15 09:26:00.0000 UT      
Step-size       : 1 minutes
*******************************************************************************
Target pole/equ : undefined
Target radii    : undefined                                                    
Center geodetic : 289.2634, -30.2406227, 2.71233  {E-lon(deg),Lat(deg),Alt(km)}
Center cylindric: 289.2634,5517.21435,-3194.81213 {E-lon(deg),Dxy(km),Dz(km)}
Center pole/equ : ITRF93                          {East-longitude positive}
Center radii    : 6378.137, 6378.137, 6356.752 km {Equator_a, b, pole_c}       
Target primary  : Sun
Vis. interferer : MOON (R_eq= 1737.400) km        {source: DE441}
Rel. light bend : Sun                             {source: DE441}
Rel. lght bnd GM: 1.3271E+11 km^3/s^2                                          
Small-body perts: Yes                             {source: SB441-N16}
Atmos refraction: NO (AIRLESS)
RA format       : HMS
Time format     : CAL 
Calendar mode   : Mixed Julian/Gregorian
RTS-only print  : NO       
EOP file        : eop.240715.p241008                                           
EOP coverage    : DATA-BASED 1962-JAN-20 TO 2024-JUL-15. PREDICTS-> 2024-OCT-07
Units conversion: 1 au= 149597870.700 km, c= 299792.458 km/s, 1 day= 86400.0 s 
Table cut-offs 1: Elevation (-90.0deg=NO ),Airmass (>38.000=NO), Daylight (YES)
Table cut-offs 2: Solar elongation (  0.0,180.0=NO ),Local Hour Angle( 0.0=NO )
Table cut-offs 3: RA/DEC angular rate (     0.0=NO )                           
*******************************************************************************
Initial IAU76/J2000 heliocentric ecliptic osculating elements (au, days, deg.):
  EPOCH=  2458458.5 ! 2018-Dec-06.00 (TDB)         Residual RMS= .12928        
   EC= .06869100257422787  QR= .9715505345748198   TP= 2458416.866413563       
   OM= 248.5061090469913   W=  141.3742304527303   IN= 1.905403987972275       
  Equivalent ICRF heliocentric cartesian coordinates (au, au/d):
   X= 2.787163119783287E-01  Y= 8.719775267121872E-01  Z= 3.748421051204766E-01
  VX=-1.676682657337402E-02 VY= 5.516972965834891E-03 VZ= 1.749720915605096E-03
Asteroid physical parameters (km, seconds, rotational period in hours):        
   GM= n.a.                RAD= n.a.               ROTPER= n.a.                
   H= 30.3                 G= .150                 B-V= n.a.                   
                           ALBEDO= n.a.            STYP= n.a.                  
*******************************************************************************
 Date__(UT)__HR:MN     R.A._________(ICRF)_________DEC
******************************************************
$$SOE
 2018-Dec-15 01:52  m  06 03 26.318625 -08 50 27.81556
 2018-Dec-15 01:53  m  06 03 26.186820 -08 50 27.59432
 2018-Dec-15 01:54  m  06 03 26.054510 -08 50 27.37207
 2018-Dec-15 01:55  m  06 03 25.921697 -08 50 27.14882
 2018-Dec-15 01:56  m  06 03 25.788384 -08 50 26.92456
 2018-Dec-15 01:57  m  06 03 25.654573 -08 50 26.69928
 2018-Dec-15 01:58  m  06 03 25.520265 -08 50 26.47297
 2018-Dec-15 01:59  m  06 03 25.385462 -08 50 26.24564
 2018-Dec-15 02:00  m  06 03 25.250168 -08 50 26.01728
 2018-Dec-15 02:01  m  06 03 25.114382 -08 50 25.78789
 2018-Dec-15 02:02  m  06 03 24.978109 -08 50 25.55745
 2018-Dec-15 02:03  m  06 03 24.841349 -08 50 25.32596
 2018-Dec-15 02:04  m  06 03 24.704104 -08 50 25.09343
 2018-Dec-15 02:05  m  06 03 24.566378 -08 50 24.85983
 2018-Dec-15 02:06  m  06 03 24.428171 -08 50 24.62518
 2018-Dec-15 02:07  m  06 03 24.289487 -08 50 24.38946
 2018-Dec-15 02:08  m  06 03 24.150326 -08 50 24.15267
 2018-Dec-15 02:09  m  06 03 24.010692 -08 50 23.91480
 2018-Dec-15 02:10  m  06 03 23.870586 -08 50 23.67586
 2018-Dec-15 02:11  m  06 03 23.730011 -08 50 23.43583
 2018-Dec-15 02:12  m  06 03 23.588968 -08 50 23.19471
 2018-Dec-15 02:13  m  06 03 23.447460 -08 50 22.95249
 2018-Dec-15 02:14  m  06 03 23.305489 -08 50 22.70918
 2018-Dec-15 02:15  m  06 03 23.163057 -08 50 22.46476
 2018-Dec-15 02:16  m  06 03 23.020166 -08 50 22.21924
 2018-Dec-15 02:17  m  06 03 22.876818 -08 50 21.97260
 2018-Dec-15 02:18  m  06 03 22.733016 -08 50 21.72484
 2018-Dec-15 02:19  m  06 03 22.588762 -08 50 21.47596
 2018-Dec-15 02:20  m  06 03 22.444058 -08 50 21.22596
 2018-Dec-15 02:21  m  06 03 22.298906 -08 50 20.97482
 2018-Dec-15 02:22  m  06 03 22.153309 -08 50 20.72255
 2018-Dec-15 02:23  m  06 03 22.007268 -08 50 20.46914
 2018-Dec-15 02:24  m  06 03 21.860787 -08 50 20.21458
 2018-Dec-15 02:25  m  06 03 21.713866 -08 50 19.95888
 2018-Dec-15 02:26  m  06 03 21.566509 -08 50 19.70202
 2018-Dec-15 02:27  m  06 03 21.418717 -08 50 19.44400
 2018-Dec-15 02:28  m  06 03 21.270494 -08 50 19.18482
 2018-Dec-15 02:29  m  06 03 21.121841 -08 50 18.92448
 2018-Dec-15 02:30  m  06 03 20.972760 -08 50 18.66296
 2018-Dec-15 02:31  m  06 03 20.823254 -08 50 18.40027
 2018-Dec-15 02:32  m  06 03 20.673326 -08 50 18.13640
 2018-Dec-15 02:33  m  06 03 20.522977 -08 50 17.87135
 2018-Dec-15 02:34  m  06 03 20.372209 -08 50 17.60511
 2018-Dec-15 02:35  m  06 03 20.221026 -08 50 17.33768
 2018-Dec-15 02:36  m  06 03 20.069429 -08 50 17.06905
 2018-Dec-15 02:37  m  06 03 19.917422 -08 50 16.79922
 2018-Dec-15 02:38  m  06 03 19.765005 -08 50 16.52818
 2018-Dec-15 02:39  m  06 03 19.612182 -08 50 16.25594
 2018-Dec-15 02:40  m  06 03 19.458955 -08 50 15.98249
 2018-Dec-15 02:41  m  06 03 19.305326 -08 50 15.70781
 2018-Dec-15 02:42  m  06 03 19.151298 -08 50 15.43192
 2018-Dec-15 02:43  m  06 03 18.996873 -08 50 15.15481
 2018-Dec-15 02:44  m  06 03 18.842053 -08 50 14.87646
 2018-Dec-15 02:45  m  06 03 18.686841 -08 50 14.59688
 2018-Dec-15 02:46  m  06 03 18.531240 -08 50 14.31607
 2018-Dec-15 02:47  m  06 03 18.375251 -08 50 14.03401
 2018-Dec-15 02:48  m  06 03 18.218878 -08 50 13.75071
 2018-Dec-15 02:49  m  06 03 18.062122 -08 50 13.46616
 2018-Dec-15 02:50  m  06 03 17.904986 -08 50 13.18036
 2018-Dec-15 02:51  m  06 03 17.747473 -08 50 12.89331
 2018-Dec-15 02:52  m  06 03 17.589585 -08 50 12.60499
 2018-Dec-15 02:53  m  06 03 17.431324 -08 50 12.31541
 2018-Dec-15 02:54  m  06 03 17.272694 -08 50 12.02457
 2018-Dec-15 02:55  m  06 03 17.113695 -08 50 11.73245
 2018-Dec-15 02:56  m  06 03 16.954332 -08 50 11.43906
 2018-Dec-15 02:57  m  06 03 16.794606 -08 50 11.14439
 2018-Dec-15 02:58  m  06 03 16.634520 -08 50 10.84844
 2018-Dec-15 02:59  m  06 03 16.474076 -08 50 10.55121
 2018-Dec-15 03:00  m  06 03 16.313277 -08 50 10.25268
 2018-Dec-15 03:01  m  06 03 16.152126 -08 50 09.95286
 2018-Dec-15 03:02  m  06 03 15.990625 -08 50 09.65175
 2018-Dec-15 03:03  m  06 03 15.828776 -08 50 09.34933
 2018-Dec-15 03:04  m  06 03 15.666582 -08 50 09.04562
 2018-Dec-15 03:05  m  06 03 15.504046 -08 50 08.74060
 2018-Dec-15 03:06  m  06 03 15.341170 -08 50 08.43426
 2018-Dec-15 03:07  m  06 03 15.177957 -08 50 08.12662
 2018-Dec-15 03:08  m  06 03 15.014410 -08 50 07.81765
 2018-Dec-15 03:09  m  06 03 14.850530 -08 50 07.50737
 2018-Dec-15 03:10  m  06 03 14.686321 -08 50 07.19576
 2018-Dec-15 03:11  m  06 03 14.521784 -08 50 06.88283
 2018-Dec-15 03:12  m  06 03 14.356924 -08 50 06.56857
 2018-Dec-15 03:13  m  06 03 14.191742 -08 50 06.25297
 2018-Dec-15 03:14  m  06 03 14.026240 -08 50 05.93604
 2018-Dec-15 03:15  m  06 03 13.860422 -08 50 05.61777
 2018-Dec-15 03:16  m  06 03 13.694291 -08 50 05.29815
 2018-Dec-15 03:17  m  06 03 13.527848 -08 50 04.97719
 2018-Dec-15 03:18  m  06 03 13.361096 -08 50 04.65488
 2018-Dec-15 03:19  m  06 03 13.194039 -08 50 04.33122
 2018-Dec-15 03:20  m  06 03 13.026678 -08 50 04.00620
 2018-Dec-15 03:21  m  06 03 12.859016 -08 50 03.67983
 2018-Dec-15 03:22  m  06 03 12.691057 -08 50 03.35209
 2018-Dec-15 03:23  m  06 03 12.522802 -08 50 03.02299
 2018-Dec-15 03:24  m  06 03 12.354254 -08 50 02.69252
 2018-Dec-15 03:25  m  06 03 12.185417 -08 50 02.36069
 2018-Dec-15 03:26  m  06 03 12.016292 -08 50 02.02748
 2018-Dec-15 03:27  m  06 03 11.846882 -08 50 01.69289
 2018-Dec-15 03:28  m  06 03 11.677191 -08 50 01.35692
 2018-Dec-15 03:29  m  06 03 11.507220 -08 50 01.01958
 2018-Dec-15 03:30  m  06 03 11.336973 -08 50 00.68085
 2018-Dec-15 03:31  m  06 03 11.166451 -08 50 00.34073
 2018-Dec-15 03:32  m  06 03 10.995659 -08 49 59.99922
 2018-Dec-15 03:33  m  06 03 10.824598 -08 49 59.65632
 2018-Dec-15 03:34  m  06 03 10.653272 -08 49 59.31203
 2018-Dec-15 03:35  m  06 03 10.481682 -08 49 58.96634
 2018-Dec-15 03:36  m  06 03 10.309832 -08 49 58.61924
 2018-Dec-15 03:37  m  06 03 10.137725 -08 49 58.27075
 2018-Dec-15 03:38  m  06 03 09.965363 -08 49 57.92084
 2018-Dec-15 03:39  m  06 03 09.792749 -08 49 57.56954
 2018-Dec-15 03:40  m  06 03 09.619885 -08 49 57.21682
 2018-Dec-15 03:41  m  06 03 09.446775 -08 49 56.86268
 2018-Dec-15 03:42  m  06 03 09.273422 -08 49 56.50713
 2018-Dec-15 03:43  m  06 03 09.099827 -08 49 56.15017
 2018-Dec-15 03:44  m  06 03 08.925994 -08 49 55.79178
 2018-Dec-15 03:45  m  06 03 08.751925 -08 49 55.43197
 2018-Dec-15 03:46  m  06 03 08.577624 -08 49 55.07074
 2018-Dec-15 03:47  m  06 03 08.403093 -08 49 54.70807
 2018-Dec-15 03:48  m  06 03 08.228335 -08 49 54.34398
 2018-Dec-15 03:49  m  06 03 08.053353 -08 49 53.97846
 2018-Dec-15 03:50  m  06 03 07.878149 -08 49 53.61150
 2018-Dec-15 03:51  m  06 03 07.702726 -08 49 53.24311
 2018-Dec-15 03:52  m  06 03 07.527087 -08 49 52.87327
 2018-Dec-15 03:53  m  06 03 07.351235 -08 49 52.50200
 2018-Dec-15 03:54  m  06 03 07.175173 -08 49 52.12928
